{
    "links": {
        "self": "http://www.neowsapp.com/rest/v1/neo/3392310?api_key=iIulBulltgU6a56xZRHN4H3l9WmuAYTsLGpBGhQ2"
    },
    "id": "3392310",
    "neo_reference_id": "3392310",
    "name": "(2007 VN3)",
    "designation": "2007 VN3",
    "nasa_jpl_url": "http://ssd.jpl.nasa.gov/sbdb.cgi?sstr=3392310",
    "absolute_magnitude_h": 21.4,
    "estimated_diameter": {
        "kilometers": {
            "estimated_diameter_min": 0.1394938229,
            "estimated_diameter_max": 0.3119176705
        },
        "meters": {
            "estimated_diameter_min": 139.4938229344,
            "estimated_diameter_max": 311.9176705226
        },
        "miles": {
            "estimated_diameter_min": 0.0866774163,
            "estimated_diameter_max": 0.1938165949
        },
        "feet": {
            "estimated_diameter_min": 457.6569140361,
            "estimated_diameter_max": 1023.3519701574
        }
    },
    "is_potentially_hazardous_asteroid": true,
    "close_approach_data": [
        {
            "close_approach_date": "1913-11-07",
            "close_approach_date_full": "1913-Nov-07 21:52",
            "epoch_date_close_approach": -1771898880000,
            "relative_velocity": {
                "kilometers_per_second": "24.5952921618",
                "kilometers_per_hour": "88543.0517823299",
                "miles_per_hour": "55017.2090366371"
            },
            "miss_distance": {
                "astronomical": "0.4168696386",
                "lunar": "162.1622894154",
                "kilometers": "62362810.002229782",
                "miles": "38750453.2529917116"
            },
            "orbiting_body": "Earth"
        },
        {
            "close_approach_date": "2007-10-22",
            "close_approach_date_full": "2007-Oct-22 15:16",
            "epoch_date_close_approach": 1193066160000,
            "relative_velocity": {
                "kilometers_per_second": "16.8770903799",
                "kilometers_per_hour": "60757.525367761",
                "miles_per_hour": "37752.3634708735"
            },
            "miss_distance": {
                "astronomical": "0.135386106",
                "lunar": "52.665195234",
                "kilometers": "20253473.08519422",
                "miles": "12584924.604431436"
            },
            "orbiting_body": "Earth"
        }
    ],
    "orbital_data": {
        "orbit_id": "11",
        "orbit_determination_date": "2017-04-06 09:05:23",
        "first_observation_date": "2007-11-03",
        "last_observation_date": "2007-12-03",
        "data_arc_in_days": 30,
        "observations_used": 51,
        "orbit_uncertainty": "7",
        "minimum_orbit_intersection": ".0278556",
        "jupiter_tisserand_invariant": "3.353",
        "epoch_osculation": "2459000.5",
        "eccentricity": ".5773602633462489",
        "semi_major_axis": "2.242672563569705",
        "inclination": "15.61802468621786",
        "ascending_node_longitude": "21.92762316283083",
        "orbital_period": "1226.725044715158",
        "perihelion_distance": ".9478425416676931",
        "perihelion_argument": "320.25187786",
        "aphelion_distance": "3.537502585471718",
        "perihelion_time": "2459274.638616259181",
        "mean_anomaly": "279.5501043379931",
        "mean_motion": ".293464294668893",
        "equinox": "J2000",
        "orbit_class": {
            "orbit_class_type": "APO",
            "orbit_class_description": "Near-Earth asteroid orbits which cross the Earth’s orbit similar to that of 1862 Apollo",
            "orbit_class_range": "a (semi-major axis) > 1.0 AU; q (perihelion) < 1.017 AU"
        }
    },
    "is_sentry_object": false
}